[Satellite]
VERSION=1.1
NAME=E-ST@R-II
NICKNAME=E-ST@R-II
TLE1=1 41459U 16025D   20158.10328831  .00001647  00000-0  86961-4 0  9991
TLE2=2 41459  98.1029 267.5014 0163977 249.6038 108.7515 15.06391480225737
STATUS=0
